{
  "type": "FeatureCollection",
  "features": [
    {
      "type": "Feature",
      "properties": {
        "norad_id": 37340,
        "name": "COSMOS 2251 DEB",
        "group": "cosmos-2251-debris",
        "lat": 45.532330085176234,
        "lon": -47.180770023010545,
        "alt_km": 752.462140297428,
        "timestamp": "2025-12-02T13:52:17.659039+00:00",
        "meta_object_name": "COSMOS 2251 DEB",
        "meta_object_id": "1993-036BLG",
        "meta_epoch": "2025-12-01T05:54:08.396928",
        "meta_mean_motion": 14.3689951,
        "meta_eccentricity": 0.0017334,
        "meta_inclination": 74.0257,
        "meta_ra_of_asc_node": 298.3019,
        "meta_arg_of_pericenter": 36.3032,
        "meta_mean_anomaly": 323.9293,
        "meta_ephemeris_type": 0,
        "meta_classification_type": "U",
        "meta_norad_cat_id": 37340,
        "meta_element_set_no": 999,
        "meta_rev_at_epoch": 83902,
        "meta_bstar": 0.00025196,
        "meta_mean_motion_dot": 7.2e-06,
        "meta_mean_motion_ddot": 0,
        "tle_line1": "1 37340U 93036BLG 25335.24593052  .00000720  00000+0  25196-3 0  9990",
        "tle_line2": "2 37340  74.0257 298.3019 0017334  36.3032 323.9293 14.36899510839020"
      },
      "geometry": {
        "type": "Point",
        "coordinates": [
          -47.180770023010545,
          45.532330085176234
        ]
      }
    },
    {
      "type": "Feature",
      "properties": {
        "norad_id": 37483,
        "name": "COSMOS 2251 DEB",
        "group": "cosmos-2251-debris",
        "lat": -72.50895258038905,
        "lon": 96.48345477193136,
        "alt_km": 757.8309813609649,
        "timestamp": "2025-12-02T13:52:17.659049+00:00",
        "meta_object_name": "COSMOS 2251 DEB",
        "meta_object_id": "1993-036BLL",
        "meta_epoch": "2025-11-29T19:43:16.041216",
        "meta_mean_motion": 14.43525894,
        "meta_eccentricity": 0.00924841,
        "meta_inclination": 73.9722,
        "meta_ra_of_asc_node": 167.4348,
        "meta_arg_of_pericenter": 16.8893,
        "meta_mean_anomaly": 343.5306,
        "meta_ephemeris_type": 0,
        "meta_classification_type": "U",
        "meta_norad_cat_id": 37483,
        "meta_element_set_no": 999,
        "meta_rev_at_epoch": 65093,
        "meta_bstar": 0.00019069876,
        "meta_mean_motion_dot": 6.51e-06,
        "meta_mean_motion_ddot": 0,
        "tle_line1": "1 37483U 93036BLL 25333.82171344  .00000651  00000+0  19070-3 0  9993",
        "tle_line2": "2 37483  73.9722 167.4348 0092484  16.8893 343.5306 14.43525894650934"
      },
      "geometry": {
        "type": "Point",
        "coordinates": [
          96.48345477193136,
          -72.50895258038905
        ]
      }
    },
    {
      "type": "Feature",
      "properties": {
        "norad_id": 37484,
        "name": "COSMOS 2251 DEB",
        "group": "cosmos-2251-debris",
        "lat": -49.34065102623137,
        "lon": 67.26535143638479,
        "alt_km": 734.8464437196044,
        "timestamp": "2025-12-02T13:52:17.659059+00:00",
        "meta_object_name": "COSMOS 2251 DEB",
        "meta_object_id": "1993-036BLM",
        "meta_epoch": "2025-12-01T23:33:59.283360",
        "meta_mean_motion": 14.41705464,
        "meta_eccentricity": 0.00403232,
        "meta_inclination": 73.8236,
        "meta_ra_of_asc_node": 228.6314,
        "meta_arg_of_pericenter": 264.9502,
        "meta_mean_anomaly": 115.0574,
        "meta_ephemeris_type": 0,
        "meta_classification_type": "U",
        "meta_norad_cat_id": 37484,
        "meta_element_set_no": 999,
        "meta_rev_at_epoch": 65224,
        "meta_bstar": 0.00080475582,
        "meta_mean_motion_dot": 2.622e-05,
        "meta_mean_motion_ddot": 0,
        "tle_line1": "1 37484U 93036BLM 25335.98193615  .00002622  00000+0  80476-3 0  9996",
        "tle_line2": "2 37484  73.8236 228.6314 0040323 264.9502 115.0574 14.41705464652241"
      },
      "geometry": {
        "type": "Point",
        "coordinates": [
          67.26535143638479,
          -49.34065102623137
        ]
      }
    },
    {
      "type": "Feature",
      "properties": {
        "norad_id": 37486,
        "name": "COSMOS 2251 DEB",
        "group": "cosmos-2251-debris",
        "lat": 72.86847692717437,
        "lon": -118.83619913727698,
        "alt_km": 844.6752351813793,
        "timestamp": "2025-12-02T13:52:17.659069+00:00",
        "meta_object_name": "COSMOS 2251 DEB",
        "meta_object_id": "1993-036BLP",
        "meta_epoch": "2025-12-01T17:07:10.517952",
        "meta_mean_motion": 14.13177303,
        "meta_eccentricity": 0.02290014,
        "meta_inclination": 73.6881,
        "meta_ra_of_asc_node": 134.5321,
        "meta_arg_of_pericenter": 4.4169,
        "meta_mean_anomaly": 10.9696,
        "meta_ephemeris_type": 0,
        "meta_classification_type": "U",
        "meta_norad_cat_id": 37486,
        "meta_element_set_no": 999,
        "meta_rev_at_epoch": 63214,
        "meta_bstar": 0.0017627564,
        "meta_mean_motion_dot": 4.208e-05,
        "meta_mean_motion_ddot": 0,
        "tle_line1": "1 37486U 93036BLP 25335.71331618  .00004208  00000+0  17628-2 0  9996",
        "tle_line2": "2 37486  73.6881 134.5321 0229001   4.4169  10.9696 14.13177303632147"
      },
      "geometry": {
        "type": "Point",
        "coordinates": [
          -118.83619913727698,
          72.86847692717437
        ]
      }
    },
    {
      "type": "Feature",
      "properties": {
        "norad_id": 37487,
        "name": "COSMOS 2251 DEB",
        "group": "cosmos-2251-debris",
        "lat": -57.84559506380134,
        "lon": 59.63254067386885,
        "alt_km": 652.5057447093122,
        "timestamp": "2025-12-02T13:52:17.659079+00:00",
        "meta_object_name": "COSMOS 2251 DEB",
        "meta_object_id": "1993-036BLQ",
        "meta_epoch": "2025-12-01T23:48:28.965888",
        "meta_mean_motion": 14.80278568,
        "meta_eccentricity": 0.00251943,
        "meta_inclination": 73.9034,
        "meta_ra_of_asc_node": 213.4502,
        "meta_arg_of_pericenter": 53.563,
        "meta_mean_anomaly": 306.7863,
        "meta_ephemeris_type": 0,
        "meta_classification_type": "U",
        "meta_norad_cat_id": 37487,
        "meta_element_set_no": 999,
        "meta_rev_at_epoch": 81086,
        "meta_bstar": 0.0032385878,
        "meta_mean_motion_dot": 0.00024856,
        "meta_mean_motion_ddot": 0,
        "tle_line1": "1 37487U 93036BLQ 25335.99200192  .00024856  00000+0  32386-2 0  9998",
        "tle_line2": "2 37487  73.9034 213.4502 0025194  53.5630 306.7863 14.80278568810862"
      },
      "geometry": {
        "type": "Point",
        "coordinates": [
          59.63254067386885,
          -57.84559506380134
        ]
      }
    },
    {
      "type": "Feature",
      "properties": {
        "norad_id": 37491,
        "name": "COSMOS 2251 DEB",
        "group": "cosmos-2251-debris",
        "lat": -66.33481865246729,
        "lon": 152.3354279222174,
        "alt_km": 790.4722519328989,
        "timestamp": "2025-12-02T13:52:17.659089+00:00",
        "meta_object_name": "COSMOS 2251 DEB",
        "meta_object_id": "1993-036BLU",
        "meta_epoch": "2025-12-01T13:55:34.044096",
        "meta_mean_motion": 13.75223452,
        "meta_eccentricity": 0.03181876,
        "meta_inclination": 73.9059,
        "meta_ra_of_asc_node": 292.8015,
        "meta_arg_of_pericenter": 287.8478,
        "meta_mean_anomaly": 68.8175,
        "meta_ephemeris_type": 0,
        "meta_classification_type": "U",
        "meta_norad_cat_id": 37491,
        "meta_element_set_no": 999,
        "meta_rev_at_epoch": 55593,
        "meta_bstar": 0.0015718852,
        "meta_mean_motion_dot": 2.153e-05,
        "meta_mean_motion_ddot": 0,
        "tle_line1": "1 37491U 93036BLU 25335.58025514  .00002153  00000+0  15719-2 0  9998",
        "tle_line2": "2 37491  73.9059 292.8015 0318187 287.8478  68.8175 13.75223452555934"
      },
      "geometry": {
        "type": "Point",
        "coordinates": [
          152.3354279222174,
          -66.33481865246729
        ]
      }
    },
    {
      "type": "Feature",
      "properties": {
        "norad_id": 37498,
        "name": "COSMOS 2251 DEB",
        "group": "cosmos-2251-debris",
        "lat": -72.28068054989747,
        "lon": 139.4924181887696,
        "alt_km": 708.0380408988367,
        "timestamp": "2025-12-02T13:52:17.659099+00:00",
        "meta_object_name": "COSMOS 2251 DEB",
        "meta_object_id": "1993-036BMB",
        "meta_epoch": "2025-11-25T08:56:38.546304",
        "meta_mean_motion": 14.54652279,
        "meta_eccentricity": 0.00134189,
        "meta_inclination": 74.0363,
        "meta_ra_of_asc_node": 216.7419,
        "meta_arg_of_pericenter": 278.5504,
        "meta_mean_anomaly": 81.4138,
        "meta_ephemeris_type": 0,
        "meta_classification_type": "U",
        "meta_norad_cat_id": 37498,
        "meta_element_set_no": 999,
        "meta_rev_at_epoch": 65102,
        "meta_bstar": 0.001010673,
        "meta_mean_motion_dot": 4.299e-05,
        "meta_mean_motion_ddot": 0,
        "tle_line1": "1 37498U 93036BMB 25329.37266836  .00004299  00000+0  10107-2 0  9998",
        "tle_line2": "2 37498  74.0363 216.7419 0013418 278.5504  81.4138 14.54652279651028"
      },
      "geometry": {
        "type": "Point",
        "coordinates": [
          139.4924181887696,
          -72.28068054989747
        ]
      }
    }
  ]
}